ONEWEB-0525             
1 54143U 22138AG  24008.84482130 -.00000048  00000+0 -15111-3 0  9992
2 54143  87.9207 122.2018 0001858 118.2705 241.8615 13.19724452 59395
ONEWEB-0526             
1 54144U 22138AH  24008.80219742  .00000043  00000+0  74982-4 0  9991
2 54144  87.9204 122.2081 0001829 109.0595 251.0735 13.19727711 59360
ONEWEB-0529             
1 54145U 22138AJ  24008.80534803  .00000030  00000+0  42522-4 0  9991
2 54145  87.9211 122.2106 0002010 116.5339 243.6000 13.19725449 59389
ONEWEB-0531             
1 54146U 22138AK  24008.78719079  .00000085  00000+0  17634-3 0  9994
2 54146  87.9195  91.6729 0002301  75.0416 285.0972 13.20771055 61779
ONEWEB-0535             
1 54147U 22138AL  24008.83850543 -.00000010  00000+0 -56659-4 0  9994
2 54147  87.9206 122.2003 0001505  94.3883 265.7421 13.19724502 59400
ONEWEB-0536             
1 54148U 22138AM  24008.77454430  .00000045  00000+0  78089-4 0  9990
2 54148  87.9194  91.7264 0001635  66.2616 293.8689 13.20769210 61769
GSLV R/B                
1 54149U 22138AN  24008.68891689  .00002180  00000+0  22391-3 0  9998
2 54149  87.3798  70.4877 0026262 129.0368 231.3203 14.89637391 65889
ONEWEB-0527             
1 54642U 22166A   24008.67879837 -.00000046  00000+0 -14231-3 0  9992
2 54642  87.9205  61.2652 0002010  98.0194 262.1168 13.21826765 53892
